NORAD_CAT_ID,OBJECT_NAME,OBJECT_TYPE,EPOCH,MEAN_MOTION,ECCENTRICITY,INCLINATION,RA_OF_ASC_NODE,ARG_OF_PERICENTER,MEAN_ANOMALY,BSTAR,MEAN_MOTION_DOT,MEAN_MOTION_DDOT,TLE_LINE0,TLE_LINE1,TLE_LINE2,SEMIMAJOR_AXIS,PERIOD,APOGEE,PERIGEE,DECAYED
55643.0,STARLINK-5483,PAYLOAD,2023-06-06 22:00:00,15.36798222,0.0003104,69.9987,204.3734,270.4037,288.1369,-0.025458,-0.00848158,0.0,0 STARLINK-5483,1 55643U 23021R   23157.91667824 -.00848158  00000-0 -25458-1 0  9993,2 55643  69.9987 204.3734 0003104 270.4037 288.1369 15.36798222  1303,6833.721,93.701,457.708,453.465,0.0
55643.0,STARLINK-5483,PAYLOAD,2023-06-07 12:46:44,15.37440595,0.0004163,69.9969,202.7314,279.8864,80.1845,-0.0074236,-0.00264319,0.0,0 STARLINK-5483,1 55643U 23021R   23158.53246037 -.00264319  00000-0 -74236-2 0  9991,2 55643  69.9969 202.7314 0004163 279.8864  80.1845 15.37440595 18042,6831.818,93.662,456.527,450.839,0.0
55643.0,STARLINK-5483,PAYLOAD,2023-06-07 14:00:01,15.3552689,0.0003219,69.9987,202.5917,275.1884,9.0845,-0.028423,-0.00904114,0.0,0 STARLINK-5483,1 55643U 23021R   23158.58334491 -.00904114  00000-0 -28423-1 0  9998,2 55643  69.9987 202.5917 0003219 275.1884   9.0845 15.35526890 17748,6837.493,93.779,461.559,457.157,0.0
55643.0,STARLINK-5483,PAYLOAD,2023-06-07 22:00:00,15.34842113,0.0003301,69.9988,201.7022,269.9292,56.0515,-0.027181,-0.00850214,0.0,0 STARLINK-5483,1 55643U 23021R   23158.91667824 -.00850214  00000-0 -27181-1 0  9995,2 55643  69.9988 201.7022 0003301 269.9292  56.0515 15.34842113  1302,6839.527,93.821,463.649,459.134,0.0
55643.0,STARLINK-5483,PAYLOAD,2023-06-08 06:00:00,15.34244403,0.000331,69.9992,200.8135,270.8521,96.0321,-0.031318,-0.00951821,0.0,0 STARLINK-5483,1 55643U 23021R   23159.25001157 -.00951821  00000-0 -31318-1 0  9997,2 55643  69.9992 200.8135 0003310 270.8521  96.0321 15.34244403 17852,6841.303,93.857,465.432,460.903,0.0
55643.0,STARLINK-5483,PAYLOAD,2023-06-08 12:14:44,15.35421501,0.0003754,69.9969,200.125,268.5799,91.495,-0.0083131,-0.00276885,0.0,0 STARLINK-5483,1 55643U 23021R   23159.51024200 -.00276885  00000-0 -83131-2 0  9991,2 55643  69.9969 200.1250 0003754 268.5799  91.4950 15.35421501 18192,6837.806,93.785,462.238,457.104,0.0
55643.0,STARLINK-5483,PAYLOAD,2023-06-08 22:00:00,15.32884875,0.0003241,69.999,199.0387,271.3882,174.9918,-0.028856,-0.00848337,0.0,0 STARLINK-5483,1 55643U 23021R   23159.91667824 -.00848337  00000-0 -28856-1 0  9999,2 55643  69.9990 199.0387 0003241 271.3882 174.9918 15.32884875 17957,6845.347,93.941,469.431,464.994,0.0
55643.0,STARLINK-5483,PAYLOAD,2023-06-09 06:00:00,15.3228276,0.0003202,69.9994,198.1526,271.7092,213.2296,-0.033094,-0.00945739,0.0,0 STARLINK-5483,1 55643U 23021R   23160.25001157 -.00945739  00000-0 -33094-1 0  9993,2 55643  69.9994 198.1526 0003202 271.7092 213.2296 15.32282760 18008,6847.14,93.977,471.198,466.813,0.0
55643.0,STARLINK-5483,PAYLOAD,2023-06-09 13:18:19,15.33468264,0.0002442,69.9974,197.3512,270.4394,89.6503,-0.0084202,-0.00263965,0.0,0 STARLINK-5483,1 55643U 23021R   23160.55439261 -.00263965  00000-0 -84202-2 0  9999,2 55643  69.9974 197.3512 0002442 270.4394  89.6503 15.33468264 18358,6843.611,93.905,467.147,463.805,0.0
55643.0,STARLINK-5483,PAYLOAD,2023-06-09 22:00:00,15.30930397,0.0003127,69.9993,196.3832,268.754,290.9837,-0.030795,-0.0085123,0.0,0 STARLINK-5483,1 55643U 23021R   23160.91667824 -.00851230  00000-0 -30795-1 0  9992,2 55643  69.9993 196.3832 0003127 268.7540 290.9837 15.30930397 18105,6851.172,94.06,475.179,470.895,0.0
55643.0,STARLINK-5483,PAYLOAD,2023-06-10 06:00:02,15.30320253,0.0003215,69.9996,195.4998,269.5365,326.4798,-0.034792,-0.00935954,0.0,0 STARLINK-5483,1 55643U 23021R   23161.25002315 -.00935954  00000-0 -34792-1 0  9995,2 55643  69.9996 195.4998 0003215 269.5365 326.4798 15.30320253 18153,6852.993,94.098,477.061,472.655,0.0
55643.0,STARLINK-5483,PAYLOAD,2023-06-10 14:00:01,15.29666568,0.0003202,69.9993,194.6173,273.4613,357.9254,-0.034847,-0.00920031,0.0,0 STARLINK-5483,1 55643U 23021R   23161.58334491 -.00920031  00000-0 -34847-1 0  9995,2 55643  69.9993 194.6173 0003202 273.4613 357.9254 15.29666568  1307,6854.945,94.138,479.005,474.615,0.0
55643.0,STARLINK-5483,PAYLOAD,2023-06-10 22:00:00,15.28971868,0.0003252,69.9995,193.7358,267.997,38.0594,-0.032621,-0.00848817,0.0,0 STARLINK-5483,1 55643U 23021R   23161.91667824 -.00848817  00000-0 -32621-1 0  9990,2 55643  69.9995 193.7358 0003252 267.9970  38.0594 15.28971868  1308,6857.022,94.181,481.116,476.657,0.0
55643.0,STARLINK-5483,PAYLOAD,2023-06-11 06:00:00,15.28363837,0.0003359,69.9997,192.8552,270.8501,69.0736,-0.036969,-0.00948083,0.0,0 STARLINK-5483,1 55643U 23021R   23162.25001157 -.00948083  00000-0 -36969-1 0  9994,2 55643  69.9997 192.8552 0003359 270.8501  69.0736 15.28363837 18319,6858.84,94.218,483.009,478.401,0.0
55643.0,STARLINK-5483,PAYLOAD,2023-06-11 14:00:01,15.27715188,0.0003357,69.9993,191.9753,276.1531,96.8565,-0.037377,-0.00940294,0.0,0 STARLINK-5483,1 55643U 23021R   23162.58334491 -.00940294  00000-0 -37377-1 0  9990,2 55643  69.9993 191.9753 0003357 276.1531  96.8565 15.27715188  1306,6860.781,94.258,484.949,480.343,0.0
55643.0,STARLINK-5483,PAYLOAD,2023-06-11 22:00:00,15.27014057,0.0003314,69.9995,191.0965,270.8859,134.449,-0.034539,-0.00846615,0.0,0 STARLINK-5483,1 55643U 23021R   23162.91667824 -.00846615  00000-0 -34539-1 0  9995,2 55643  69.9995 191.0965 0003314 270.8859 134.4490 15.27014057  1304,6862.881,94.302,487.021,482.472,0.0
55643.0,STARLINK-5483,PAYLOAD,2023-06-12 06:00:00,15.26404621,0.000334,69.9996,190.2186,273.1229,163.7331,-0.039143,-0.00945778,0.0,0 STARLINK-5483,1 55643U 23021R   23163.25001157 -.00945778  00000-0 -39143-1 0  9990,2 55643  69.9996 190.2186 0003340 273.1229 163.7331 15.26404621 18460,6864.708,94.339,488.866,484.28,0.0
55643.0,STARLINK-5483,PAYLOAD,2023-06-12 14:00:01,15.25759971,0.0003237,69.9991,189.3412,276.3188,191.3385,-0.039895,-0.00945336,0.0,0 STARLINK-5483,1 55643U 23021R   23163.58335648 -.00945336  00000-0 -39895-1 0  9995,2 55643  69.9991 189.3412 0003237 276.3188 191.3385 15.25759971  1301,6866.641,94.379,490.729,486.284,0.0
55643.0,STARLINK-5483,PAYLOAD,2023-06-12 22:00:00,15.25060258,0.0003199,69.9993,188.4651,268.0185,229.5515,-0.03675,-0.00848877,0.0,0 STARLINK-5483,1 55643U 23021R   23163.91667824 -.00848877  00000-0 -36750-1 0  9995,2 55643  69.9993 188.4651 0003199 268.0185 229.5515 15.25060258 18568,6868.741,94.422,492.804,488.409,0.0
55643.0,STARLINK-5483,PAYLOAD,2023-06-13 00:00:00,15.24936624,0.0003245,69.9994,188.2463,264.7778,330.1461,-0.03972,-0.00920048,0.0,0 STARLINK-5483,1 55643U 23021R   23164.00001157 -.00920048  00000-0 -39720-1 0  9998,2 55643  69.9994 188.2463 0003245 264.7778 330.1461 15.24936624  1302,6869.113,94.43,493.207,488.749,0.0
55643.0,STARLINK-5483,PAYLOAD,2023-06-13 06:00:02,15.24443364,0.0003223,69.9994,187.5897,271.2923,255.5197,-0.041252,-0.00939943,0.0,0 STARLINK-5483,1 55643U 23021R   23164.25002315 -.00939943  00000-0 -41252-1 0  9999,2 55643  69.9994 187.5897 0003223 271.2923 255.5197 15.24443364 18618,6870.594,94.461,494.674,490.245,0.0
55643.0,STARLINK-5483,PAYLOAD,2023-06-13 14:00:01,15.23805616,0.0003195,69.999,186.7151,275.5014,279.6354,-0.042566,-0.00950703,0.0,0 STARLINK-5483,1 55643U 23021R   23164.58334491 -.00950703  00000-0 -42566-1 0  9994,2 55643  69.9990 186.7151 0003195 275.5014 279.6354 15.23805616  1305,6872.511,94.5,496.572,492.181,0.0
55643.0,STARLINK-5483,PAYLOAD,2023-06-13 22:00:00,15.23106746,0.0003233,69.9991,185.8414,268.7239,314.0419,-0.039218,-0.00854035,0.0,0 STARLINK-5483,1 55643U 23021R   23164.91667824 -.00854035  00000-0 -39218-1 0  9991,2 55643  69.9991 185.8414 0003233 268.7239 314.0419 15.23106746  1308,6874.613,94.544,498.701,494.256,0.0
55643.0,STARLINK-5483,PAYLOAD,2023-06-14 14:00:01,15.21851605,0.0003344,69.9987,184.0965,272.4779,3.1612,-0.045543,-0.00959218,0.0,0 STARLINK-5483,1 55643U 23021R   23165.58334491 -.00959218  00000-0 -45543-1 0  9993,2 55643  69.9987 184.0965 0003344 272.4779   3.1612 15.21851605 18813,6878.393,94.622,502.558,497.958,0.0
55643.0,STARLINK-5483,PAYLOAD,2023-06-14 22:00:00,15.21154744,0.000337,69.9989,183.2254,264.866,36.0526,-0.041817,-0.00859142,0.0,0 STARLINK-5483,1 55643U 23021R   23165.91667824 -.00859142  00000-0 -41817-1 0  9994,2 55643  69.9989 183.2254 0003370 264.8660  36.0526 15.21154744  1305,6880.493,94.665,504.677,500.04,0.0
55643.0,STARLINK-5483,PAYLOAD,2023-06-15 06:00:00,15.20522757,0.0003374,69.9989,182.3552,270.0951,55.3148,-0.045697,-0.00927998,0.0,0 STARLINK-5483,1 55643U 23021R   23166.25001157 -.00927998  00000-0 -45697-1 0  9998,2 55643  69.9989 182.3552 0003374 270.0951  55.3148 15.20522757 18924,6882.4,94.704,506.587,501.943,0.0
55643.0,STARLINK-5483,PAYLOAD,2023-06-15 14:00:01,15.19898423,0.0003436,69.9985,181.4857,275.0306,74.0691,-0.048451,-0.00963295,0.0,0 STARLINK-5483,1 55643U 23021R   23166.58334491 -.00963295  00000-0 -48451-1 0  9995,2 55643  69.9985 181.4857 0003436 275.0306  74.0691 15.19898423  1305,6884.284,94.743,508.515,503.784,0.0
55643.0,STARLINK-5483,PAYLOAD,2023-06-15 20:00:01,15.19346654,0.0003323,69.9988,180.8341,269.2443,7.1412,-0.043388,-0.0084653,0.0,0 STARLINK-5483,1 55643U 23021R   23166.83334491 -.00846530  00000-0 -43388-1 0  9999,2 55643  69.9988 180.8341 0003323 269.2443   7.1412 15.19346654  1303,6885.951,94.778,510.104,505.528,0.0
55643.0,STARLINK-5483,PAYLOAD,2023-06-16 14:00:01,15.17938587,0.0003449,69.9983,178.8827,276.4962,139.026,-0.051035,-0.00958911,0.0,0 STARLINK-5483,1 55643U 23021R   23167.58334491 -.00958911  00000-0 -51035-1 0  9997,2 55643  69.9983 178.8827 0003449 276.4962 139.0260 15.17938587 19124,6890.209,94.865,514.45,509.697,0.0
55643.0,STARLINK-5483,PAYLOAD,2023-06-16 22:00:00,15.17249203,0.0003402,69.9985,178.0168,270.2377,165.8692,-0.047746,-0.00884945,0.0,0 STARLINK-5483,1 55643U 23021R   23167.91667824 -.00884945  00000-0 -47746-1 0  9992,2 55643  69.9985 178.0168 0003402 270.2377 165.8692 15.17249203  1304,6892.296,94.909,516.505,511.816,0.0
